[
    {
        "Altitude(m)": 612502.2256481746,
        "Argument of Periapsis(deg)": 0.0,
        "Eccentricity": 0.0,
        "Inclination(deg)": 60.0,
        "Latitude(deg)": -28.13607357759651,
        "Longitude(deg)": -162.85180777134764,
        "Mean Anomaly(deg)": -32.72730000000001,
        "RAAN(deg)": 315.0,
        "Satellite Name": "Test1 1406",
        "Satellite Number": 1406,
        "Semi-Major Axis(m)": 6980739.136638005,
        "Time(s)": 0
    },
    {
        "Altitude(m)": 612308.6733624567,
        "Argument of Periapsis(deg)": 0.00010418945913296404,
        "Eccentricity": 0.0,
        "Inclination(deg)": 60.0,
        "Latitude(deg)": -27.623129555500025,
        "Longitude(deg)": -162.49833207520987,
        "Mean Anomaly(deg)": -32.10719385453816,
        "RAAN(deg)": 314.99957995086027,
        "Satellite Name": "Test1 1406",
        "Satellite Number": 1406,
        "Semi-Major Axis(m)": 6980739.136638005,
        "Time(s)": 10
    }
]